NORAD_CAT_ID,OBJECT_NAME,OBJECT_TYPE,EPOCH,MEAN_MOTION,ECCENTRICITY,INCLINATION,RA_OF_ASC_NODE,ARG_OF_PERICENTER,MEAN_ANOMALY,BSTAR,MEAN_MOTION_DOT,MEAN_MOTION_DDOT,TLE_LINE0,TLE_LINE1,TLE_LINE2,SEMIMAJOR_AXIS,PERIOD,APOGEE,PERIGEE,DECAYED
53289.0,STARLINK-4176,PAYLOAD,2022-09-30 22:00:00,15.73284759,0.000325,53.2156,64.9102,9.0263,129.58,-0.00012999,-0.00018898,0.0,0 STARLINK-4176,1 53289U 22086AZ  22273.91667824 -.00018898  00000-0 -12999-3 0  9993,2 53289  53.2156  64.9102 0003250   9.0263 129.5800 15.73284759 11393,6727.654,91.528,351.705,347.332,0.0
53289.0,STARLINK-4176,PAYLOAD,2022-10-01 14:00:01,15.73269073,0.0003171,53.2155,61.6101,7.5309,309.0621,-0.00046003,-0.000649,0.0,0 STARLINK-4176,1 53289U 22086AZ  22274.58334491 -.00064900  00000-0 -46003-3 0  9996,2 53289  53.2155  61.6101 0003171   7.5309 309.0621 15.73269073 11490,6727.698,91.529,351.69699999999995,347.43,0.0
53289.0,STARLINK-4176,PAYLOAD,2022-10-01 22:00:00,15.73230907,0.0003478,53.2149,59.9615,8.1256,37.4481,-0.00065754,-0.0009205999999999,0.0,0 STARLINK-4176,1 53289U 22086AZ  22274.91667824 -.00092060  00000-0 -65754-3 0  9994,2 53289  53.2149  59.9615 0003478   8.1256  37.4481 15.73230907  1300,6727.807,91.531,352.01199999999994,347.332,0.0
53289.0,STARLINK-4176,PAYLOAD,2022-10-02 14:00:01,15.73179667,0.0003477,53.2154,56.6618,14.8919,208.4708,0.00038077,0.00053122,0.0,0 STARLINK-4176,1 53289U 22086AZ  22275.58334491  .00053122  00000-0  38077-3 0  9991,2 53289  53.2154  56.6618 0003477  14.8919 208.4708 15.73179667  1309,6727.953,91.534,352.157,347.47900000000016,0.0
53289.0,STARLINK-4176,PAYLOAD,2022-10-02 22:00:00,15.73243099,0.0003665,53.2152,55.01300000000001,11.1488,301.1328,-0.00013171,-0.00019108,0.0,0 STARLINK-4176,1 53289U 22086AZ  22275.91667824 -.00019108  00000-0 -13171-3 0  9993,2 53289  53.2152  55.0130 0003665  11.1488 301.1328 15.73243099  1309,6727.772,91.531,352.103,347.172,0.0
53289.0,STARLINK-4176,PAYLOAD,2022-10-03 06:00:00,15.73226998,0.0003446,53.2153,53.3614,8.568,32.6926,0.00015734,0.00021546,0.0,0 STARLINK-4176,1 53289U 22086AZ  22276.25001157  .00021546  00000-0  15734-3 0  9996,2 53289  53.2153  53.3614 0003446   8.5680  32.6926 15.73226998 11769,6727.818,91.532,352.00199999999984,347.365,0.0
53289.0,STARLINK-4176,PAYLOAD,2022-10-03 14:00:01,15.7325616,0.0003632,53.215,51.7131,5.9976,124.2433,-0.00044348,-0.00062577,0.0,0 STARLINK-4176,1 53289U 22086AZ  22276.58334491 -.00062577  00000-0 -44348-3 0  9996,2 53289  53.2150  51.7131 0003632   5.9976 124.2433 15.73256160  1302,6727.735,91.53,352.0440000000001,347.157,0.0
53289.0,STARLINK-4176,PAYLOAD,2022-10-03 22:00:00,15.73236864,0.000381,53.2144,50.06399999999999,5.3804,213.8181,-0.00038335,-0.00054189,0.0,0 STARLINK-4176,1 53289U 22086AZ  22276.91667824 -.00054189  00000-0 -38335-3 0  9991,2 53289  53.2144  50.0640 0003810   5.3804 213.8181 15.73236864 11860,6727.79,91.531,352.218,347.092,0.0
53289.0,STARLINK-4176,PAYLOAD,2022-10-04 06:00:00,15.73206911,0.0003613,53.2146,48.4124,6.7351,301.4346,-4.8594e-06,-1.306e-05,0.0,0 STARLINK-4176,1 53289U 22086AZ  22277.25001157 -.00001306  00000-0 -48594-5 0  9993,2 53289  53.2146  48.4124 0003613   6.7351 301.4346 15.73206911 11916,6727.875,91.533,352.171,347.31,0.0
53289.0,STARLINK-4176,PAYLOAD,2022-10-04 14:00:01,15.73206079,0.0003773,53.2154,46.7602,6.5526,30.5528,-0.00046453,-0.0006536,0.0,0 STARLINK-4176,1 53289U 22086AZ  22277.58334491 -.00065360  00000-0 -46453-3 0  9999,2 53289  53.2154  46.7602 0003773   6.5526  30.5528 15.73206079  1305,6727.878000000002,91.533,352.281,347.204,0.0
53289.0,STARLINK-4176,PAYLOAD,2022-10-04 22:00:00,15.73256309,0.0003478999999999,53.2159,45.0978,351.666,134.35399999999998,-0.0047103,-0.00617294,0.0,0 STARLINK-4176,1 53289U 22086AZ  22277.91667824 -.00617294  00000-0 -47103-2 0  9996,2 53289  53.2159  45.0978 0003479 351.6660 134.3540 15.73256309  1302,6727.735,91.53,351.94,347.259,0.0
53289.0,STARLINK-4176,PAYLOAD,2022-10-05 06:00:00,15.73114137,0.000316,53.2174,43.43600000000001,315.8539,258.825,-0.0087403,-0.01095969,0.0,0 STARLINK-4176,1 53289U 22086AZ  22278.25001157 -.01095969  00000-0 -87403-2 0  9992,2 53289  53.2174  43.4360 0003160 315.8539 258.8250 15.73114137 12078,6728.14,91.538,352.131,347.879,0.0
53289.0,STARLINK-4176,PAYLOAD,2022-10-05 14:00:01,15.72353005,0.0005944,53.2171,41.792,278.4643,24.6051,-0.0097136,-0.01171439,0.0,0 STARLINK-4176,1 53289U 22086AZ  22278.58335648 -.01171439  00000-0 -97136-2 0  9994,2 53289  53.2171  41.7920 0005944 278.4643  24.6051 15.72353005  1300,6730.311,91.582,356.177,348.176,0.0
53289.0,STARLINK-4176,PAYLOAD,2022-10-05 22:00:00,15.71505479,0.0006973,53.217,40.1424,271.7862,118.6059,-0.0095859,-0.01121581,0.0,0 STARLINK-4176,1 53289U 22086AZ  22278.91667824 -.01121581  00000-0 -95859-2 0  9998,2 53289  53.2170  40.1424 0006973 271.7862 118.6059 15.71505479  1308,6732.731,91.632,359.29,349.901,0.0
53289.0,STARLINK-4176,PAYLOAD,2022-10-06 14:00:01,15.69876385,0.0002634,53.2169,36.8576,285.0573,277.1446,-0.0102709999999999,-0.01118975,0.0,0 STARLINK-4176,1 53289U 22086AZ  22279.58334491 -.01118975  00000-0 -10271-1 0  9990,2 53289  53.2169  36.8576 0002634 285.0573 277.1446 15.69876385  1308,6737.388000000001,91.727,361.027,357.478,0.0
53289.0,STARLINK-4176,PAYLOAD,2022-10-06 22:42:55,15.6897006,5.84e-05,53.2169,35.0674,3.2535,91.7728,-0.010381,-0.01091218,0.0,0 STARLINK-4176,1 53289U 22086AZ  22279.94646991 -.01091218  00000-0 -10381-1 0  9993,2 53289  53.2169  35.0674 0000584   3.2535  91.7728 15.68970060  1305,6739.982,91.78,362.241,361.453,0.0
53289.0,STARLINK-4176,PAYLOAD,2022-10-07 00:00:00,15.68864994,4.3e-05,53.2172,34.8057,28.9227,8.6727,-0.010777,-0.01142366,0.0,0 STARLINK-4176,1 53289U 22086AZ  22280.00001157 -.01142366  00000-0 -10777-1 0  9991,2 53289  53.2172  34.8057 0000430  28.9227   8.6727 15.68864994 12354,6740.283,91.786,362.43800000000016,361.858,0.0
53289.0,STARLINK-4176,PAYLOAD,2022-10-07 14:00:01,15.67438318,0.0001240999999999,53.2175,31.9402,60.3163,32.267,-0.011399,-0.01139773,0.0,0 STARLINK-4176,1 53289U 22086AZ  22280.58334491 -.01139773  00000-0 -11399-1 0  9993,2 53289  53.2175  31.9402 0001241  60.3163  32.2670 15.67438318  1308,6744.371999999999,91.87,367.074,365.4,0.0
53289.0,STARLINK-4176,PAYLOAD,2022-10-07 22:00:00,15.66627598,0.0001262,53.2166,30.3068,69.3485,104.7378,-0.0118319999999999,-0.01144074,0.0,0 STARLINK-4176,1 53289U 22086AZ  22280.91667824 -.01144074  00000-0 -11832-1 0  9991,2 53289  53.2166  30.3068 0001262  69.3485 104.7378 15.66627598 12499,6746.699000000001,91.917,369.415,367.712,0.0
53289.0,STARLINK-4176,PAYLOAD,2022-10-08 14:00:01,15.650040400000002,0.0001032999999999,53.217,27.0434,82.8974,251.263,-0.012693,-0.01148743,0.0,0 STARLINK-4176,1 53289U 22086AZ  22281.58334491 -.01148743  00000-0 -12693-1 0  9999,2 53289  53.2170  27.0434 0001033  82.8974 251.2630 15.65004040  1300,6751.364000000001,92.013,373.927,372.532,0.0
53289.0,STARLINK-4176,PAYLOAD,2022-10-08 22:00:00,15.64182239,0.0001030999999999,53.2172,25.4136,73.1764,339.5596,-0.012966,-0.01136717,0.0,0 STARLINK-4176,1 53289U 22086AZ  22281.91667824 -.01136717  00000-0 -12966-1 0  9996,2 53289  53.2172  25.4136 0001031  73.1764 339.5596 15.64182239 12658,6753.729,92.061,376.29,374.897,0.0
53289.0,STARLINK-4176,PAYLOAD,2022-10-09 14:00:01,15.62578252,0.0001277,53.2172,22.1637,85.2501,121.6827,-0.014237,-0.01168031,0.0,0 STARLINK-4176,1 53289U 22086AZ  22282.58334491 -.01168031  00000-0 -14237-1 0  9998,2 53289  53.2172  22.1637 0001277  85.2501 121.6827 15.62578252 12753,6758.35,92.155,381.078,379.352,0.0
53289.0,STARLINK-4176,PAYLOAD,2022-10-09 22:00:00,15.61741708,0.0001127,53.2173,20.5395,75.616,206.9666,-0.014288,-0.01137497,0.0,0 STARLINK-4176,1 53289U 22086AZ  22282.91667824 -.01137497  00000-0 -14288-1 0  9992,2 53289  53.2173  20.5395 0001127  75.6160 206.9666 15.61741708  1309,6760.763000000001,92.205,383.39,381.866,0.0
53289.0,STARLINK-4176,PAYLOAD,2022-10-10 14:00:01,15.60114658,0.0001202,53.2175,17.3011,63.8,7.1233,-0.0152139999999999,-0.01137129,0.0,0 STARLINK-4176,1 53289U 22086AZ  22283.58334491 -.01137129  00000-0 -15214-1 0  9999,2 53289  53.2175  17.3011 0001202  63.8000   7.1233 15.60114658  1304,6765.4630000000025,92.301,388.141,386.514,0.0
53289.0,STARLINK-4176,PAYLOAD,2022-10-10 22:00:01,15.59299304,0.0001303,53.2173,15.6833,61.1032,82.5906,-0.015659,-0.01134574,0.0,0 STARLINK-4176,1 53289U 22086AZ  22283.91668981 -.01134574  00000-0 -15659-1 0  9994,2 53289  53.2173  15.6833 0001303  61.1032  82.5906 15.59299304 12961,6767.821,92.349,390.568,388.804,0.0
53289.0,STARLINK-4176,PAYLOAD,2022-10-11 14:00:01,15.57671695,0.0001255,53.2174,12.4569,63.3277,222.7748,-0.016645,-0.01133632,0.0,0 STARLINK-4176,1 53289U 22086AZ  22284.58334491 -.01133632  00000-0 -16645-1 0  9994,2 53289  53.2174  12.4569 0001255  63.3277 222.7748 15.57671695  1307,6772.534000000002,92.446,395.249,393.549,0.0
53289.0,STARLINK-4176,PAYLOAD,2022-10-11 22:00:00,15.56859315,0.0001182,53.2171,10.8454,55.3761,300.497,-0.017199,-0.01135774,0.0,0 STARLINK-4176,1 53289U 22086AZ  22284.91667824 -.01135774  00000-0 -17199-1 0  9994,2 53289  53.2171  10.8454 0001182  55.3761 300.4970 15.56859315  1304,6774.89,92.494,397.556,395.954,0.0
53289.0,STARLINK-4176,PAYLOAD,2022-10-12 14:00:01,15.55229899,0.0001302,53.2176,7.6303,69.578,62.9026,-0.018203,-0.01131586,0.0,0 STARLINK-4176,1 53289U 22086AZ  22285.58334491 -.01131586  00000-0 -18203-1 0  9993,2 53289  53.2176   7.6303 0001302  69.5780  62.9026 15.55229899  1307,6779.621,92.591,402.369,400.604,0.0
53289.0,STARLINK-4176,PAYLOAD,2022-10-12 22:00:00,15.54417485,0.0001267,53.2175,6.024,76.8419,122.4763,-0.018805,-0.01134114,0.0,0 STARLINK-4176,1 53289U 22086AZ  22285.91667824 -.01134114  00000-0 -18805-1 0  9997,2 53289  53.2175   6.0240 0001267  76.8419 122.4763 15.54417485 13277,6781.983,92.639,404.708,402.989,0.0
